STARLINK-1983           
1 47630U 21012L   26077.08881599  .00003860  00000+0  14243-3 0  9999
2 47630  53.1620  10.5432 0001339  87.6162 272.4992 15.30190422281564
STARLINK-1992           
1 47632U 21012N   26076.87684865  .00005017  00000+0  18147-3 0  9997
2 47632  53.1597 294.3841 0001384  77.5193 282.5963 15.30188220282617
STARLINK-2015           
1 47638U 21012U   26076.89159728  .00005967  00000+0  21345-3 0  9998
2 47638  53.1581 294.3109 0001303  80.4142 279.7006 15.30197910282613
STARLINK-2019           
1 47641U 21012X   26076.89094125  .00102872  00000+0  12454-2 0  9994
2 47641  53.0444 262.9316 0002313 140.6144 219.5037 15.59885336283050
STARLINK-2022           
1 47643U 21012Z   26077.15215900  .00736209  28326-3  99702-3 0  9996
2 47643  53.0059 293.8179 0007208 248.6813 111.3449 16.05779213282653
STARLINK-2031           
1 47648U 21012AE  26077.11515208  .00003276  00000+0  12271-3 0  9993
2 47648  53.1598  10.4119 0001073  89.6518 270.4606 15.30193048281590
STARLINK-2032           
1 47649U 21012AF  26076.98598368  .00066069  00000+0  60785-3 0  9998
2 47649  53.0427 333.1499 0009351 112.3111 247.8897 15.67024521282104
STARLINK-2033           
1 47650U 21012AG  26077.16452612  .00021801  00000+0  70237-3 0  9990
2 47650  53.1566  10.1253 0001901 122.1356 237.9830 15.32147590281586
STARLINK-2036           
1 47652U 21012AJ  26077.11623150  .00040034  00000+0  86149-3 0  9992
2 47652  53.1614  24.6046 0002163 124.7568 235.3643 15.44265517281381
STARLINK-2039           
1 47655U 21012AM  26077.10369246  .00003255  00000+0  12204-3 0  9992
2 47655  53.1617  25.9785 0001651  94.8712 265.2478 15.30186925281377
STARLINK-2040           
1 47656U 21012AN  26077.11196217 -.00014418  00000+0 -47532-3 0  9997
2 47656  53.1592  10.4298 0001297  64.5208 295.5926 15.30218193281588
STARLINK-2041           
1 47657U 21012AP  26077.13199935  .00077843  00000+0  16176-2 0  9998
2 47657  53.1611  24.5077 0001499 119.1212 240.9946 15.45001080281394
STARLINK-2058           
1 47667U 21012AZ  26077.33335648  .00207190  00000+0  80339-3 0  9997
2 47667  53.0383 340.3289 0005709 104.6350 351.4870 15.86078021  5969
STARLINK-2065           
1 47672U 21012BE  26076.91028554  .00086436  00000+0  68088-3 0  9996
2 47672  53.1521 328.4512 0005511  78.5139 281.6498 15.70731822282157
STARLINK-2083           
1 47676U 21012BJ  26077.26255578  .00109995  00000+0  14680-2 0  9991
2 47676  53.0492 240.1689 0005281 211.4802 148.5894 15.57254432283403
STARLINK-2095           
1 47679U 21012BM  26077.33335648  .00098717  00000+0  56832-3 0  9994
2 47679  53.0232 304.1086 0005846 195.9244 219.9461 15.77933549  5975
