[{"OBJECT_NAME":"STARLINK-1983","OBJECT_ID":"2021-012L","EPOCH":"2026-03-18T02:07:53.701536","MEAN_MOTION":15.30190422,"ECCENTRICITY":0.00013392,"INCLINATION":53.162,"RA_OF_ASC_NODE":10.5432,"ARG_OF_PERICENTER":87.6162,"MEAN_ANOMALY":272.4992,"EPHEMERIS_TYPE":0,"CLASSIFICATION_TYPE":"U","NORAD_CAT_ID":47630,"ELEMENT_SET_NO":999,"REV_AT_EPOCH":28156,"BSTAR":0.00014243188,"MEAN_MOTION_DOT":3.86e-5,"MEAN_MOTION_DDOT":0},{"OBJECT_NAME":"STARLINK-1992","OBJECT_ID":"2021-012N","EPOCH":"2026-03-17T21:02:39.723360","MEAN_MOTION":15.3018822,"ECCENTRICITY":0.00013845,"INCLINATION":53.1597,"RA_OF_ASC_NODE":294.3841,"ARG_OF_PERICENTER":77.5193,"MEAN_ANOMALY":282.5963,"EPHEMERIS_TYPE":0,"CLASSIFICATION_TYPE":"U","NORAD_CAT_ID":47632,"ELEMENT_SET_NO":999,"REV_AT_EPOCH":28261,"BSTAR":0.00018146869,"MEAN_MOTION_DOT":5.017e-5,"MEAN_MOTION_DDOT":0},{"OBJECT_NAME":"STARLINK-2015","OBJECT_ID":"2021-012U","EPOCH":"2026-03-17T21:23:54.004992","MEAN_MOTION":15.3019791,"ECCENTRICITY":0.00013038,"INCLINATION":53.1581,"RA_OF_ASC_NODE":294.3109,"ARG_OF_PERICENTER":80.4142,"MEAN_ANOMALY":279.7006,"EPHEMERIS_TYPE":0,"CLASSIFICATION_TYPE":"U","NORAD_CAT_ID":47638,"ELEMENT_SET_NO":999,"REV_AT_EPOCH":28261,"BSTAR":0.00021344543,"MEAN_MOTION_DOT":5.967e-5,"MEAN_MOTION_DDOT":0},{"OBJECT_NAME":"STARLINK-2019","OBJECT_ID":"2021-012X","EPOCH":"2026-03-17T21:22:57.324000","MEAN_MOTION":15.59885336,"ECCENTRICITY":0.00023136,"INCLINATION":53.0444,"RA_OF_ASC_NODE":262.9316,"ARG_OF_PERICENTER":140.6144,"MEAN_ANOMALY":219.5037,"EPHEMERIS_TYPE":0,"CLASSIFICATION_TYPE":"U","NORAD_CAT_ID":47641,"ELEMENT_SET_NO":999,"REV_AT_EPOCH":28305,"BSTAR":0.0012453632,"MEAN_MOTION_DOT":0.00102872,"MEAN_MOTION_DDOT":0},{"OBJECT_NAME":"STARLINK-2022","OBJECT_ID":"2021-012Z","EPOCH":"2026-03-18T03:39:06.537600","MEAN_MOTION":16.05779213,"ECCENTRICITY":0.00072086,"INCLINATION":53.0059,"RA_OF_ASC_NODE":293.8179,"ARG_OF_PERICENTER":248.6813,"MEAN_ANOMALY":111.3449,"EPHEMERIS_TYPE":0,"CLASSIFICATION_TYPE":"U","NORAD_CAT_ID":47643,"ELEMENT_SET_NO":999,"REV_AT_EPOCH":28265,"BSTAR":0.00099701572,"MEAN_MOTION_DOT":0.00736209,"MEAN_MOTION_DDOT":0.00028326017},{"OBJECT_NAME":"STARLINK-2031","OBJECT_ID":"2021-012AE","EPOCH":"2026-03-18T02:45:49.139712","MEAN_MOTION":15.30193048,"ECCENTRICITY":0.00010735,"INCLINATION":53.1598,"RA_OF_ASC_NODE":10.4119,"ARG_OF_PERICENTER":89.6518,"MEAN_ANOMALY":270.4606,"EPHEMERIS_TYPE":0,"CLASSIFICATION_TYPE":"U","NORAD_CAT_ID":47648,"ELEMENT_SET_NO":999,"REV_AT_EPOCH":28159,"BSTAR":0.00012271225,"MEAN_MOTION_DOT":3.276e-5,"MEAN_MOTION_DDOT":0},{"OBJECT_NAME":"STARLINK-2032","OBJECT_ID":"2021-012AF","EPOCH":"2026-03-17T23:39:48.989952","MEAN_MOTION":15.67024521,"ECCENTRICITY":0.00093517,"INCLINATION":53.0427,"RA_OF_ASC_NODE":333.1499,"ARG_OF_PERICENTER":112.3111,"MEAN_ANOMALY":247.8897,"EPHEMERIS_TYPE":0,"CLASSIFICATION_TYPE":"U","NORAD_CAT_ID":47649,"ELEMENT_SET_NO":999,"REV_AT_EPOCH":28210,"BSTAR":0.00060784593,"MEAN_MOTION_DOT":0.00066069,"MEAN_MOTION_DDOT":0},{"OBJECT_NAME":"STARLINK-2033","OBJECT_ID":"2021-012AG","EPOCH":"2026-03-18T03:56:55.056768","MEAN_MOTION":15.3214759,"ECCENTRICITY":0.00019017,"INCLINATION":53.1566,"RA_OF_ASC_NODE":10.1253,"ARG_OF_PERICENTER":122.1356,"MEAN_ANOMALY":237.983,"EPHEMERIS_TYPE":0,"CLASSIFICATION_TYPE":"U","NORAD_CAT_ID":47650,"ELEMENT_SET_NO":999,"REV_AT_EPOCH":28158,"BSTAR":0.00070237227,"MEAN_MOTION_DOT":0.00021801,"MEAN_MOTION_DDOT":0},{"OBJECT_NAME":"STARLINK-2036","OBJECT_ID":"2021-012AJ","EPOCH":"2026-03-18T02:47:22.401600","MEAN_MOTION":15.44265517,"ECCENTRICITY":0.0002163,"INCLINATION":53.1614,"RA_OF_ASC_NODE":24.6046,"ARG_OF_PERICENTER":124.7568,"MEAN_ANOMALY":235.3643,"EPHEMERIS_TYPE":0,"CLASSIFICATION_TYPE":"U","NORAD_CAT_ID":47652,"ELEMENT_SET_NO":999,"REV_AT_EPOCH":28138,"BSTAR":0.00086149118,"MEAN_MOTION_DOT":0.00040034,"MEAN_MOTION_DDOT":0},{"OBJECT_NAME":"STARLINK-2039","OBJECT_ID":"2021-012AM","EPOCH":"2026-03-18T02:29:19.028544","MEAN_MOTION":15.30186925,"ECCENTRICITY":0.0001651,"INCLINATION":53.1617,"RA_OF_ASC_NODE":25.9785,"ARG_OF_PERICENTER":94.8712,"MEAN_ANOMALY":265.2478,"EPHEMERIS_TYPE":0,"CLASSIFICATION_TYPE":"U","NORAD_CAT_ID":47655,"ELEMENT_SET_NO":999,"REV_AT_EPOCH":28137,"BSTAR":0.00012203764,"MEAN_MOTION_DOT":3.255e-5,"MEAN_MOTION_DDOT":0},{"OBJECT_NAME":"STARLINK-2040","OBJECT_ID":"2021-012AN","EPOCH":"2026-03-18T02:41:13.531488","MEAN_MOTION":15.30218193,"ECCENTRICITY":0.00012972,"INCLINATION":53.1592,"RA_OF_ASC_NODE":10.4298,"ARG_OF_PERICENTER":64.5208,"MEAN_ANOMALY":295.5926,"EPHEMERIS_TYPE":0,"CLASSIFICATION_TYPE":"U","NORAD_CAT_ID":47656,"ELEMENT_SET_NO":999,"REV_AT_EPOCH":28158,"BSTAR":-0.00047532166,"MEAN_MOTION_DOT":-0.00014418,"MEAN_MOTION_DDOT":0},{"OBJECT_NAME":"STARLINK-2041","OBJECT_ID":"2021-012AP","EPOCH":"2026-03-18T03:10:04.743840","MEAN_MOTION":15.4500108,"ECCENTRICITY":0.00014991,"INCLINATION":53.1611,"RA_OF_ASC_NODE":24.5077,"ARG_OF_PERICENTER":119.1212,"MEAN_ANOMALY":240.9946,"EPHEMERIS_TYPE":0,"CLASSIFICATION_TYPE":"U","NORAD_CAT_ID":47657,"ELEMENT_SET_NO":999,"REV_AT_EPOCH":28139,"BSTAR":0.0016175629,"MEAN_MOTION_DOT":0.00077843,"MEAN_MOTION_DDOT":0},{"OBJECT_NAME":"STARLINK-2058","OBJECT_ID":"2021-012AZ","EPOCH":"2026-03-18T08:00:01.999872","MEAN_MOTION":15.86078021,"ECCENTRICITY":0.00057099,"INCLINATION":53.0383,"RA_OF_ASC_NODE":340.3289,"ARG_OF_PERICENTER":104.635,"MEAN_ANOMALY":351.487,"EPHEMERIS_TYPE":0,"CLASSIFICATION_TYPE":"U","NORAD_CAT_ID":47667,"ELEMENT_SET_NO":999,"REV_AT_EPOCH":596,"BSTAR":0.00080338583,"MEAN_MOTION_DOT":0.0020719,"MEAN_MOTION_DDOT":0},{"OBJECT_NAME":"STARLINK-2065","OBJECT_ID":"2021-012BE","EPOCH":"2026-03-17T21:50:48.670656","MEAN_MOTION":15.70731822,"ECCENTRICITY":0.00055118,"INCLINATION":53.1521,"RA_OF_ASC_NODE":328.4512,"ARG_OF_PERICENTER":78.5139,"MEAN_ANOMALY":281.6498,"EPHEMERIS_TYPE":0,"CLASSIFICATION_TYPE":"U","NORAD_CAT_ID":47672,"ELEMENT_SET_NO":999,"REV_AT_EPOCH":28215,"BSTAR":0.00068088332,"MEAN_MOTION_DOT":0.00086436,"MEAN_MOTION_DDOT":0},{"OBJECT_NAME":"STARLINK-2083","OBJECT_ID":"2021-012BJ","EPOCH":"2026-03-18T06:18:04.819392","MEAN_MOTION":15.57254432,"ECCENTRICITY":0.00052811,"INCLINATION":53.0492,"RA_OF_ASC_NODE":240.1689,"ARG_OF_PERICENTER":211.4802,"MEAN_ANOMALY":148.5894,"EPHEMERIS_TYPE":0,"CLASSIFICATION_TYPE":"U","NORAD_CAT_ID":47676,"ELEMENT_SET_NO":999,"REV_AT_EPOCH":28340,"BSTAR":0.0014680321,"MEAN_MOTION_DOT":0.00109995,"MEAN_MOTION_DDOT":0},{"OBJECT_NAME":"STARLINK-2095","OBJECT_ID":"2021-012BM","EPOCH":"2026-03-18T08:00:01.999872","MEAN_MOTION":15.77933549,"ECCENTRICITY":0.00058462,"INCLINATION":53.0232,"RA_OF_ASC_NODE":304.1086,"ARG_OF_PERICENTER":195.9244,"MEAN_ANOMALY":219.9461,"EPHEMERIS_TYPE":0,"CLASSIFICATION_TYPE":"U","NORAD_CAT_ID":47679,"ELEMENT_SET_NO":999,"REV_AT_EPOCH":597,"BSTAR":0.00056832111,"MEAN_MOTION_DOT":0.00098717,"MEAN_MOTION_DDOT":0}]
